{
  "type": "FeatureCollection",
  "features": [
    {
      "type": "Feature",
      "properties": {
        "norad_id": 34366,
        "name": "IRIDIUM 33 DEB",
        "group": "iridium-33-debris",
        "lat": 77.21953117157526,
        "lon": -152.49043334310855,
        "alt_km": 688.605340599951,
        "timestamp": "2025-12-25T11:37:44.824180+00:00",
        "meta_object_name": "IRIDIUM 33 DEB",
        "meta_object_id": "1997-051FJ",
        "meta_epoch": "2025-12-25T03:10:17.907744",
        "meta_mean_motion": 14.54149809,
        "meta_eccentricity": 0.0023066,
        "meta_inclination": 86.3683,
        "meta_ra_of_asc_node": 43.9225,
        "meta_arg_of_pericenter": 101.255,
        "meta_mean_anomaly": 317.3928,
        "meta_ephemeris_type": 0,
        "meta_classification_type": "U",
        "meta_norad_cat_id": 34366,
        "meta_element_set_no": 999,
        "meta_rev_at_epoch": 88362,
        "meta_bstar": 0.0009397,
        "meta_mean_motion_dot": 4.007e-05,
        "meta_mean_motion_ddot": 0,
        "tle_line1": "1 34366U 97051FJ  25359.13215171  .00004007  00000+0  93970-3 0  9990",
        "tle_line2": "2 34366  86.3683  43.9225 0023066 101.2550 317.3928 14.54149809883629"
      },
      "geometry": {
        "type": "Point",
        "coordinates": [
          -152.49043334310855,
          77.21953117157526
        ]
      }
    },
    {
      "type": "Feature",
      "properties": {
        "norad_id": 34375,
        "name": "IRIDIUM 33 DEB",
        "group": "iridium-33-debris",
        "lat": 15.37140961239161,
        "lon": -3.4187645288135977,
        "alt_km": 816.1806541612896,
        "timestamp": "2025-12-25T11:37:44.824191+00:00",
        "meta_object_name": "IRIDIUM 33 DEB",
        "meta_object_id": "1997-051FT",
        "meta_epoch": "2025-12-24T13:09:42.393312",
        "meta_mean_motion": 14.18013041,
        "meta_eccentricity": 0.01036939,
        "meta_inclination": 86.4324,
        "meta_ra_of_asc_node": 177.9413,
        "meta_arg_of_pericenter": 89.8064,
        "meta_mean_anomaly": 337.6478,
        "meta_ephemeris_type": 0,
        "meta_classification_type": "U",
        "meta_norad_cat_id": 34375,
        "meta_element_set_no": 999,
        "meta_rev_at_epoch": 86879,
        "meta_bstar": 0.00038925605,
        "meta_mean_motion_dot": 8.6e-06,
        "meta_mean_motion_ddot": 0,
        "tle_line1": "1 34375U 97051FT  25358.54840733  .00000860  00000+0  38926-3 0  9995",
        "tle_line2": "2 34375  86.4324 177.9413 0103693  89.8064 337.6478 14.18013041868799"
      },
      "geometry": {
        "type": "Point",
        "coordinates": [
          -3.4187645288135977,
          15.37140961239161
        ]
      }
    },
    {
      "type": "Feature",
      "properties": {
        "norad_id": 34376,
        "name": "IRIDIUM 33 DEB",
        "group": "iridium-33-debris",
        "lat": 60.69925728219832,
        "lon": 7.433493042379806,
        "alt_km": 669.6463688518288,
        "timestamp": "2025-12-25T11:37:44.824205+00:00",
        "meta_object_name": "IRIDIUM 33 DEB",
        "meta_object_id": "1997-051FU",
        "meta_epoch": "2025-12-24T17:17:28.891392",
        "meta_mean_motion": 14.62726881,
        "meta_eccentricity": 0.00284367,
        "meta_inclination": 86.2983,
        "meta_ra_of_asc_node": 1.1525,
        "meta_arg_of_pericenter": 127.427,
        "meta_mean_anomaly": 232.9536,
        "meta_ephemeris_type": 0,
        "meta_classification_type": "U",
        "meta_norad_cat_id": 34376,
        "meta_element_set_no": 999,
        "meta_rev_at_epoch": 88182,
        "meta_bstar": 0.001533236,
        "meta_mean_motion_dot": 7.879e-05,
        "meta_mean_motion_ddot": 0,
        "tle_line1": "1 34376U 97051FU  25358.72047328  .00007879  00000+0  15332-2 0  9997",
        "tle_line2": "2 34376  86.2983   1.1525 0028436 127.4270 232.9536 14.62726881881823"
      },
      "geometry": {
        "type": "Point",
        "coordinates": [
          7.433493042379806,
          60.69925728219832
        ]
      }
    },
    {
      "type": "Feature",
      "properties": {
        "norad_id": 34486,
        "name": "IRIDIUM 33 DEB",
        "group": "iridium-33-debris",
        "lat": 8.784908193894946,
        "lon": 6.69743296567572,
        "alt_km": 576.1865330643241,
        "timestamp": "2025-12-25T11:37:44.824215+00:00",
        "meta_object_name": "IRIDIUM 33 DEB",
        "meta_object_id": "1997-051GB",
        "meta_epoch": "2025-12-25T00:37:54.079104",
        "meta_mean_motion": 14.96343831,
        "meta_eccentricity": 0.0013926,
        "meta_inclination": 86.3927,
        "meta_ra_of_asc_node": 6.3505,
        "meta_arg_of_pericenter": 77.1371,
        "meta_mean_anomaly": 345.1721,
        "meta_ephemeris_type": 0,
        "meta_classification_type": "U",
        "meta_norad_cat_id": 34486,
        "meta_element_set_no": 999,
        "meta_rev_at_epoch": 89170,
        "meta_bstar": 0.0022974,
        "meta_mean_motion_dot": 0.00026127,
        "meta_mean_motion_ddot": 0,
        "tle_line1": "1 34486U 97051GB  25359.02632036  .00026127  00000+0  22974-2 0  9996",
        "tle_line2": "2 34486  86.3927   6.3505 0013926  77.1371 345.1721 14.96343831891708"
      },
      "geometry": {
        "type": "Point",
        "coordinates": [
          6.69743296567572,
          8.784908193894946
        ]
      }
    },
    {
      "type": "Feature",
      "properties": {
        "norad_id": 34487,
        "name": "IRIDIUM 33 DEB",
        "group": "iridium-33-debris",
        "lat": 56.43265505764509,
        "lon": -178.64133363426723,
        "alt_km": 722.9977344796098,
        "timestamp": "2025-12-25T11:37:44.824226+00:00",
        "meta_object_name": "IRIDIUM 33 DEB",
        "meta_object_id": "1997-051GC",
        "meta_epoch": "2025-12-25T01:19:57.963072",
        "meta_mean_motion": 14.43231551,
        "meta_eccentricity": 0.0033262,
        "meta_inclination": 86.3429,
        "meta_ra_of_asc_node": 7.0742,
        "meta_arg_of_pericenter": 90.1032,
        "meta_mean_anomaly": 325.4273,
        "meta_ephemeris_type": 0,
        "meta_classification_type": "U",
        "meta_norad_cat_id": 34487,
        "meta_element_set_no": 999,
        "meta_rev_at_epoch": 88426,
        "meta_bstar": 0.00018854,
        "meta_mean_motion_dot": 6.59e-06,
        "meta_mean_motion_ddot": 0,
        "tle_line1": "1 34487U 97051GC  25359.05553198  .00000659  00000+0  18854-3 0  9996",
        "tle_line2": "2 34487  86.3429   7.0742 0033262  90.1032 325.4273 14.43231551884264"
      },
      "geometry": {
        "type": "Point",
        "coordinates": [
          -178.64133363426723,
          56.43265505764509
        ]
      }
    },
    {
      "type": "Feature",
      "properties": {
        "norad_id": 34488,
        "name": "IRIDIUM 33 DEB",
        "group": "iridium-33-debris",
        "lat": 28.192566142413597,
        "lon": 117.512181251678,
        "alt_km": 470.15022922996104,
        "timestamp": "2025-12-25T11:37:44.824236+00:00",
        "meta_object_name": "IRIDIUM 33 DEB",
        "meta_object_id": "1997-051GD",
        "meta_epoch": "2025-12-24T20:52:00.225120",
        "meta_mean_motion": 15.32501741,
        "meta_eccentricity": 0.0009278,
        "meta_inclination": 86.3252,
        "meta_ra_of_asc_node": 299.7925,
        "meta_arg_of_pericenter": 31.7639,
        "meta_mean_anomaly": 328.4168,
        "meta_ephemeris_type": 0,
        "meta_classification_type": "U",
        "meta_norad_cat_id": 34488,
        "meta_element_set_no": 999,
        "meta_rev_at_epoch": 89425,
        "meta_bstar": 0.0047265,
        "meta_mean_motion_dot": 0.0015116,
        "meta_mean_motion_ddot": 0,
        "tle_line1": "1 34488U 97051GD  25358.86944705  .00151160  00000+0  47265-2 0  9994",
        "tle_line2": "2 34488  86.3252 299.7925 0009278  31.7639 328.4168 15.32501741894252"
      },
      "geometry": {
        "type": "Point",
        "coordinates": [
          117.512181251678,
          28.192566142413597
        ]
      }
    },
    {
      "type": "Feature",
      "properties": {
        "norad_id": 34492,
        "name": "IRIDIUM 33 DEB",
        "group": "iridium-33-debris",
        "lat": 45.261224358239204,
        "lon": 145.90782544031413,
        "alt_km": 736.2987673915613,
        "timestamp": "2025-12-25T11:37:44.824246+00:00",
        "meta_object_name": "IRIDIUM 33 DEB",
        "meta_object_id": "1997-051GH",
        "meta_epoch": "2025-12-24T21:39:21.521088",
        "meta_mean_motion": 14.25932668,
        "meta_eccentricity": 0.0188786,
        "meta_inclination": 86.473,
        "meta_ra_of_asc_node": 329.7114,
        "meta_arg_of_pericenter": 198.6425,
        "meta_mean_anomaly": 190.963,
        "meta_ephemeris_type": 0,
        "meta_classification_type": "U",
        "meta_norad_cat_id": 34492,
        "meta_element_set_no": 999,
        "meta_rev_at_epoch": 85232,
        "meta_bstar": 0.0029502,
        "meta_mean_motion_dot": 8.501e-05,
        "meta_mean_motion_ddot": 0,
        "tle_line1": "1 34492U 97051GH  25358.90233242  .00008501  00000+0  29502-2 0  9995",
        "tle_line2": "2 34492  86.4730 329.7114 0188786 198.6425 190.9630 14.25932668852326"
      },
      "geometry": {
        "type": "Point",
        "coordinates": [
          145.90782544031413,
          45.261224358239204
        ]
      }
    }
  ]
}